{
  "type": "FeatureCollection",
  "features": [
    {
      "type": "Feature",
      "geometry": {
        "type": "Polygon",
        "coordinates": [
          [
            [
              -112.0046413,
              33.432849
            ],
            [
              -112.0047146,
              33.4333157
            ],
            [
              -112.0049295,
              33.4337506
            ],
            [
              -112.0052712,
              33.4341241
            ],
            [
              -112.0057167,
              33.4344106
            ],
            [
              -112.0062354,
              33.4345908
            ],
            [
              -112.006792,
              33.4346522
            ],
            [
              -112.0073486,
              33.4345908
            ],
            [
              -112.0078673,
              33.4344106
            ],
            [
              -112.0083128,
              33.4341241
            ],
            [
              -112.0086545,
              33.4337506
            ],
            [
              -112.0088694,
              33.4333157
            ],
            [
              -112.0089427,
              33.432849
            ],
            [
              -112.0088694,
              33.4323823
            ],
            [
              -112.0086545,
              33.4319474
            ],
            [
              -112.0083128,
              33.4315739
            ],
            [
              -112.0078673,
              33.4312874
            ],
            [
              -112.0073486,
              33.4311072
            ],
            [
              -112.006792,
              33.4310458
            ],
            [
              -112.0062354,
              33.4311072
            ],
            [
              -112.0057167,
              33.4312874
            ],
            [
              -112.0052712,
              33.4315739
            ],
            [
              -112.0049295,
              33.4319474
            ],
            [
              -112.0047146,
              33.4323823
            ],
            [
              -112.0046413,
              33.432849
            ]
          ]
        ]
      },
      "properties": {
        "site_id": "PHX-SKY",
        "name": "Sky Harbor airfield ramp",
        "archetype": "industrial_asphalt",
        "expected_profile": "high_peak_long_tail",
        "centroid": [
          -112.006792,
          33.432849
        ],
        "buffer_m": 200.0,
        "area_km2": 0.1242
      }
    },
    {
      "type": "Feature",
      "geometry": {
        "type": "Polygon",
        "coordinates": [
          [
            [
              -112.1151767,
              33.416661
            ],
            [
              -112.11525,
              33.4171277
            ],
            [
              -112.1154648,
              33.4175626
            ],
            [
              -112.1158065,
              33.4179361
            ],
            [
              -112.1162519,
              33.4182226
            ],
            [
              -112.1167705,
              33.4184028
            ],
            [
              -112.117327,
              33.4184642
            ],
            [
              -112.1178835,
              33.4184028
            ],
            [
              -112.1184021,
              33.4182226
            ],
            [
              -112.1188475,
              33.4179361
            ],
            [
              -112.1191892,
              33.4175626
            ],
            [
              -112.119404,
              33.4171277
            ],
            [
              -112.1194773,
              33.416661
            ],
            [
              -112.119404,
              33.4161943
            ],
            [
              -112.1191892,
              33.4157594
            ],
            [
              -112.1188475,
              33.4153859
            ],
            [
              -112.1184021,
              33.4150994
            ],
            [
              -112.1178835,
              33.4149192
            ],
            [
              -112.117327,
              33.4148578
            ],
            [
              -112.1167705,
              33.4149192
            ],
            [
              -112.1162519,
              33.4150994
            ],
            [
              -112.1158065,
              33.4153859
            ],
            [
              -112.1154648,
              33.4157594
            ],
            [
              -112.11525,
              33.4161943
            ],
            [
              -112.1151767,
              33.416661
            ]
          ]
        ]
      },
      "properties": {
        "site_id": "PHX-27TH",
        "name": "27th Avenue Resource Innovation Campus",
        "archetype": "industrial_asphalt",
        "expected_profile": "high_peak_long_tail",
        "centroid": [
          -112.117327,
          33.416661
        ],
        "buffer_m": 200.0,
        "area_km2": 0.1242
      }
    },
    {
      "type": "Feature",
      "geometry": {
        "type": "Polygon",
        "coordinates": [
          [
            [
              -112.077647,
              33.689169
            ],
            [
              -112.0777205,
              33.6896357
            ],
            [
              -112.077936,
              33.6900706
            ],
            [
              -112.0782787,
              33.690444
            ],
            [
              -112.0787255,
              33.6907306
            ],
            [
              -112.0792457,
              33.6909107
            ],
            [
              -112.079804,
              33.6909722
            ],
            [
              -112.0803623,
              33.6909107
            ],
            [
              -112.0808825,
              33.6907306
            ],
            [
              -112.0813293,
              33.690444
            ],
            [
              -112.081672,
              33.6900706
            ],
            [
              -112.0818875,
              33.6896357
            ],
            [
              -112.081961,
              33.689169
            ],
            [
              -112.0818875,
              33.6887023
            ],
            [
              -112.081672,
              33.6882674
            ],
            [
              -112.0813293,
              33.687894
            ],
            [
              -112.0808825,
              33.6876074
            ],
            [
              -112.0803623,
              33.6874273
            ],
            [
              -112.079804,
              33.6873658
            ],
            [
              -112.0792457,
              33.6874273
            ],
            [
              -112.0787255,
              33.6876074
            ],
            [
              -112.0782787,
              33.687894
            ],
            [
              -112.077936,
              33.6882674
            ],
            [
              -112.0777205,
              33.6887023
            ],
            [
              -112.077647,
              33.689169
            ]
          ]
        ]
      },
      "properties": {
        "site_id": "PHX-DVT",
        "name": "Deer Valley airport industrial apron",
        "archetype": "industrial_asphalt",
        "expected_profile": "high_peak_long_tail",
        "centroid": [
          -112.079804,
          33.689169
        ],
        "buffer_m": 200.0,
        "area_km2": 0.1242
      }
    },
    {
      "type": "Feature",
      "geometry": {
        "type": "Polygon",
        "coordinates": [
          [
            [
              -112.0710399,
              33.45088
            ],
            [
              -112.0711132,
              33.4513467
            ],
            [
              -112.0713281,
              33.4517816
            ],
            [
              -112.0716699,
              33.4521551
            ],
            [
              -112.0721154,
              33.4524416
            ],
            [
              -112.0726343,
              33.4526218
            ],
            [
              -112.073191,
              33.4526832
            ],
            [
              -112.0737477,
              33.4526218
            ],
            [
              -112.0742666,
              33.4524416
            ],
            [
              -112.0747121,
              33.4521551
            ],
            [
              -112.0750539,
              33.4517816
            ],
            [
              -112.0752688,
              33.4513467
            ],
            [
              -112.0753421,
              33.45088
            ],
            [
              -112.0752688,
              33.4504133
            ],
            [
              -112.0750539,
              33.4499784
            ],
            [
              -112.0747121,
              33.4496049
            ],
            [
              -112.0742666,
              33.4493184
            ],
            [
              -112.0737477,
              33.4491382
            ],
            [
              -112.073191,
              33.4490768
            ],
            [
              -112.0726343,
              33.4491382
            ],
            [
              -112.0721154,
              33.4493184
            ],
            [
              -112.0716699,
              33.4496049
            ],
            [
              -112.0713281,
              33.4499784
            ],
            [
              -112.0711132,
              33.4504133
            ],
            [
              -112.0710399,
              33.45088
            ]
          ]
        ]
      },
      "properties": {
        "site_id": "PHX-CHASE",
        "name": "Chase Tower block, N Central Ave",
        "archetype": "downtown_canyon",
        "expected_profile": "clipped_peak_long_tail",
        "centroid": [
          -112.073191,
          33.45088
        ],
        "buffer_m": 200.0,
        "area_km2": 0.1242
      }
    },
    {
      "type": "Feature",
      "geometry": {
        "type": "Polygon",
        "coordinates": [
          [
            [
              -112.074371,
              33.446552
            ],
            [
              -112.0744443,
              33.4470187
            ],
            [
              -112.0746592,
              33.4474536
            ],
            [
              -112.075001,
              33.4478271
            ],
            [
              -112.0754465,
              33.4481136
            ],
            [
              -112.0759653,
              33.4482938
            ],
            [
              -112.076522,
              33.4483552
            ],
            [
              -112.0770787,
              33.4482938
            ],
            [
              -112.0775975,
              33.4481136
            ],
            [
              -112.078043,
              33.4478271
            ],
            [
              -112.0783848,
              33.4474536
            ],
            [
              -112.0785997,
              33.4470187
            ],
            [
              -112.078673,
              33.446552
            ],
            [
              -112.0785997,
              33.4460853
            ],
            [
              -112.0783848,
              33.4456504
            ],
            [
              -112.078043,
              33.4452769
            ],
            [
              -112.0775975,
              33.4449904
            ],
            [
              -112.0770787,
              33.4448102
            ],
            [
              -112.076522,
              33.4447488
            ],
            [
              -112.0759653,
              33.4448102
            ],
            [
              -112.0754465,
              33.4449904
            ],
            [
              -112.075001,
              33.4452769
            ],
            [
              -112.0746592,
              33.4456504
            ],
            [
              -112.0744443,
              33.4460853
            ],
            [
              -112.074371,
              33.446552
            ]
          ]
        ]
      },
      "properties": {
        "site_id": "PHX-JEFF",
        "name": "Superior Court complex, W Jefferson St",
        "archetype": "downtown_canyon",
        "expected_profile": "clipped_peak_long_tail",
        "centroid": [
          -112.076522,
          33.446552
        ],
        "buffer_m": 200.0,
        "area_km2": 0.1242
      }
    },
    {
      "type": "Feature",
      "geometry": {
        "type": "Polygon",
        "coordinates": [
          [
            [
              -112.0672737,
              33.458894
            ],
            [
              -112.067347,
              33.4593607
            ],
            [
              -112.0675619,
              33.4597956
            ],
            [
              -112.0679038,
              33.4601691
            ],
            [
              -112.0683493,
              33.4604556
            ],
            [
              -112.0688682,
              33.4606358
            ],
            [
              -112.069425,
              33.4606972
            ],
            [
              -112.0699818,
              33.4606358
            ],
            [
              -112.0705007,
              33.4604556
            ],
            [
              -112.0709462,
              33.4601691
            ],
            [
              -112.0712881,
              33.4597956
            ],
            [
              -112.071503,
              33.4593607
            ],
            [
              -112.0715763,
              33.458894
            ],
            [
              -112.071503,
              33.4584273
            ],
            [
              -112.0712881,
              33.4579924
            ],
            [
              -112.0709462,
              33.4576189
            ],
            [
              -112.0705007,
              33.4573324
            ],
            [
              -112.0699818,
              33.4571522
            ],
            [
              -112.069425,
              33.4570908
            ],
            [
              -112.0688682,
              33.4571522
            ],
            [
              -112.0683493,
              33.4573324
            ],
            [
              -112.0679038,
              33.4576189
            ],
            [
              -112.0675619,
              33.4579924
            ],
            [
              -112.067347,
              33.4584273
            ],
            [
              -112.0672737,
              33.458894
            ]
          ]
        ]
      },
      "properties": {
        "site_id": "PHX-ROOS",
        "name": "Roosevelt Row corridor works",
        "archetype": "downtown_canyon",
        "expected_profile": "clipped_peak_long_tail",
        "centroid": [
          -112.069425,
          33.458894
        ],
        "buffer_m": 200.0,
        "area_km2": 0.1242
      }
    },
    {
      "type": "Feature",
      "geometry": {
        "type": "Polygon",
        "coordinates": [
          [
            [
              -112.0822994,
              33.34703
            ],
            [
              -112.0823727,
              33.3474967
            ],
            [
              -112.0825873,
              33.3479316
            ],
            [
              -112.0829287,
              33.3483051
            ],
            [
              -112.0833737,
              33.3485917
            ],
            [
              -112.0838919,
              33.3487718
            ],
            [
              -112.084448,
              33.3488333
            ],
            [
              -112.0850041,
              33.3487718
            ],
            [
              -112.0855223,
              33.3485917
            ],
            [
              -112.0859673,
              33.3483051
            ],
            [
              -112.0863087,
              33.3479316
            ],
            [
              -112.0865233,
              33.3474967
            ],
            [
              -112.0865966,
              33.34703
            ],
            [
              -112.0865233,
              33.3465633
            ],
            [
              -112.0863087,
              33.3461284
            ],
            [
              -112.0859673,
              33.3457549
            ],
            [
              -112.0855223,
              33.3454683
            ],
            [
              -112.0850041,
              33.3452882
            ],
            [
              -112.084448,
              33.3452267
            ],
            [
              -112.0838919,
              33.3452882
            ],
            [
              -112.0833737,
              33.3454683
            ],
            [
              -112.0829287,
              33.3457549
            ],
            [
              -112.0825873,
              33.3461284
            ],
            [
              -112.0823727,
              33.3465633
            ],
            [
              -112.0822994,
              33.34703
            ]
          ]
        ]
      },
      "properties": {
        "site_id": "PHX-SMTN",
        "name": "South Mountain Park north trailhead",
        "archetype": "desert_edge",
        "expected_profile": "high_peak_fast_cool",
        "centroid": [
          -112.084448,
          33.34703
        ],
        "buffer_m": 200.0,
        "area_km2": 0.1242
      }
    },
    {
      "type": "Feature",
      "geometry": {
        "type": "Polygon",
        "coordinates": [
          [
            [
              -112.3514111,
              33.322065
            ],
            [
              -112.3514842,
              33.3225317
            ],
            [
              -112.3516988,
              33.3229666
            ],
            [
              -112.3520402,
              33.3233401
            ],
            [
              -112.352485,
              33.3236267
            ],
            [
              -112.3530031,
              33.3238068
            ],
            [
              -112.353559,
              33.3238683
            ],
            [
              -112.3541149,
              33.3238068
            ],
            [
              -112.354633,
              33.3236267
            ],
            [
              -112.3550778,
              33.3233401
            ],
            [
              -112.3554192,
              33.3229666
            ],
            [
              -112.3556338,
              33.3225317
            ],
            [
              -112.3557069,
              33.322065
            ],
            [
              -112.3556338,
              33.3215983
            ],
            [
              -112.3554192,
              33.3211634
            ],
            [
              -112.3550778,
              33.3207899
            ],
            [
              -112.354633,
              33.3205033
            ],
            [
              -112.3541149,
              33.3203232
            ],
            [
              -112.353559,
              33.3202617
            ],
            [
              -112.3530031,
              33.3203232
            ],
            [
              -112.352485,
              33.3205033
            ],
            [
              -112.3520402,
              33.3207899
            ],
            [
              -112.3516988,
              33.3211634
            ],
            [
              -112.3514842,
              33.3215983
            ],
            [
              -112.3514111,
              33.322065
            ]
          ]
        ]
      },
      "properties": {
        "site_id": "PHX-ESTR",
        "name": "Estrella Mountain desert-edge yard",
        "archetype": "desert_edge",
        "expected_profile": "high_peak_fast_cool",
        "centroid": [
          -112.353559,
          33.322065
        ],
        "buffer_m": 200.0,
        "area_km2": 0.1242
      }
    },
    {
      "type": "Feature",
      "geometry": {
        "type": "Polygon",
        "coordinates": [
          [
            [
              -111.9757977,
              33.29569
            ],
            [
              -111.9758709,
              33.2961567
            ],
            [
              -111.9760854,
              33.2965916
            ],
            [
              -111.9764266,
              33.2969651
            ],
            [
              -111.9768714,
              33.2972517
            ],
            [
              -111.9773892,
              33.2974318
            ],
            [
              -111.977945,
              33.2974933
            ],
            [
              -111.9785008,
              33.2974318
            ],
            [
              -111.9790186,
              33.2972517
            ],
            [
              -111.9794634,
              33.2969651
            ],
            [
              -111.9798046,
              33.2965916
            ],
            [
              -111.9800191,
              33.2961567
            ],
            [
              -111.9800923,
              33.29569
            ],
            [
              -111.9800191,
              33.2952233
            ],
            [
              -111.9798046,
              33.2947884
            ],
            [
              -111.9794634,
              33.2944149
            ],
            [
              -111.9790186,
              33.2941283
            ],
            [
              -111.9785008,
              33.2939482
            ],
            [
              -111.977945,
              33.2938867
            ],
            [
              -111.9773892,
              33.2939482
            ],
            [
              -111.9768714,
              33.2941283
            ],
            [
              -111.9764266,
              33.2944149
            ],
            [
              -111.9760854,
              33.2947884
            ],
            [
              -111.9758709,
              33.2952233
            ],
            [
              -111.9757977,
              33.29569
            ]
          ]
        ]
      },
      "properties": {
        "site_id": "PHX-L202",
        "name": "Loop 202 South Mountain corridor paving",
        "archetype": "desert_edge",
        "expected_profile": "high_peak_fast_cool",
        "centroid": [
          -111.977945,
          33.29569
        ],
        "buffer_m": 200.0,
        "area_km2": 0.1242
      }
    },
    {
      "type": "Feature",
      "geometry": {
        "type": "Polygon",
        "coordinates": [
          [
            [
              -112.2540133,
              33.39303
            ],
            [
              -112.2540866,
              33.3934967
            ],
            [
              -112.2543013,
              33.3939316
            ],
            [
              -112.2546429,
              33.3943051
            ],
            [
              -112.2550882,
              33.3945917
            ],
            [
              -112.2556066,
              33.3947718
            ],
            [
              -112.256163,
              33.3948332
            ],
            [
              -112.2567194,
              33.3947718
            ],
            [
              -112.2572378,
              33.3945917
            ],
            [
              -112.2576831,
              33.3943051
            ],
            [
              -112.2580247,
              33.3939316
            ],
            [
              -112.2582394,
              33.3934967
            ],
            [
              -112.2583127,
              33.39303
            ],
            [
              -112.2582394,
              33.3925633
            ],
            [
              -112.2580247,
              33.3921284
            ],
            [
              -112.2576831,
              33.3917549
            ],
            [
              -112.2572378,
              33.3914683
            ],
            [
              -112.2567194,
              33.3912882
            ],
            [
              -112.256163,
              33.3912268
            ],
            [
              -112.2556066,
              33.3912882
            ],
            [
              -112.2550882,
              33.3914683
            ],
            [
              -112.2546429,
              33.3917549
            ],
            [
              -112.2543013,
              33.3921284
            ],
            [
              -112.2540866,
              33.3925633
            ],
            [
              -112.2540133,
              33.39303
            ]
          ]
        ]
      },
      "properties": {
        "site_id": "PHX-TRES",
        "name": "Tres Rios wetlands, 91st Ave reclamation",
        "archetype": "park_adjacent",
        "expected_profile": "depressed_peak",
        "centroid": [
          -112.256163,
          33.39303
        ],
        "buffer_m": 200.0,
        "area_km2": 0.1242
      }
    },
    {
      "type": "Feature",
      "geometry": {
        "type": "Polygon",
        "coordinates": [
          [
            [
              -112.0870683,
              33.474992
            ],
            [
              -112.0871416,
              33.4754587
            ],
            [
              -112.0873566,
              33.4758936
            ],
            [
              -112.0876985,
              33.4762671
            ],
            [
              -112.0881441,
              33.4765536
            ],
            [
              -112.0886631,
              33.4767338
            ],
            [
              -112.08922,
              33.4767952
            ],
            [
              -112.0897769,
              33.4767338
            ],
            [
              -112.0902959,
              33.4765536
            ],
            [
              -112.0907415,
              33.4762671
            ],
            [
              -112.0910834,
              33.4758936
            ],
            [
              -112.0912984,
              33.4754587
            ],
            [
              -112.0913717,
              33.474992
            ],
            [
              -112.0912984,
              33.4745253
            ],
            [
              -112.0910834,
              33.4740904
            ],
            [
              -112.0907415,
              33.4737169
            ],
            [
              -112.0902959,
              33.4734304
            ],
            [
              -112.0897769,
              33.4732502
            ],
            [
              -112.08922,
              33.4731888
            ],
            [
              -112.0886631,
              33.4732502
            ],
            [
              -112.0881441,
              33.4734304
            ],
            [
              -112.0876985,
              33.4737169
            ],
            [
              -112.0873566,
              33.4740904
            ],
            [
              -112.0871416,
              33.4745253
            ],
            [
              -112.0870683,
              33.474992
            ]
          ]
        ]
      },
      "properties": {
        "site_id": "PHX-ENCA",
        "name": "Encanto Park grounds",
        "archetype": "park_adjacent",
        "expected_profile": "depressed_peak",
        "centroid": [
          -112.08922,
          33.474992
        ],
        "buffer_m": 200.0,
        "area_km2": 0.1242
      }
    },
    {
      "type": "Feature",
      "geometry": {
        "type": "Polygon",
        "coordinates": [
          [
            [
              -112.0634507,
              33.700836
            ],
            [
              -112.0635242,
              33.7013027
            ],
            [
              -112.0637397,
              33.7017376
            ],
            [
              -112.0640825,
              33.702111
            ],
            [
              -112.0645293,
              33.7023976
            ],
            [
              -112.0650496,
              33.7025777
            ],
            [
              -112.065608,
              33.7026392
            ],
            [
              -112.0661664,
              33.7025777
            ],
            [
              -112.0666867,
              33.7023976
            ],
            [
              -112.0671335,
              33.702111
            ],
            [
              -112.0674763,
              33.7017376
            ],
            [
              -112.0676918,
              33.7013027
            ],
            [
              -112.0677653,
              33.700836
            ],
            [
              -112.0676918,
              33.7003693
            ],
            [
              -112.0674763,
              33.6999344
            ],
            [
              -112.0671335,
              33.699561
            ],
            [
              -112.0666867,
              33.6992744
            ],
            [
              -112.0661664,
              33.6990943
            ],
            [
              -112.065608,
              33.6990328
            ],
            [
              -112.0650496,
              33.6990943
            ],
            [
              -112.0645293,
              33.6992744
            ],
            [
              -112.0640825,
              33.699561
            ],
            [
              -112.0637397,
              33.6999344
            ],
            [
              -112.0635242,
              33.7003693
            ],
            [
              -112.0634507,
              33.700836
            ]
          ]
        ]
      },
      "properties": {
        "site_id": "PHX-UNHL",
        "name": "Union Hills Water Treatment Plant",
        "archetype": "mixed_suburban",
        "expected_profile": "high_peak_fast_cool",
        "centroid": [
          -112.065608,
          33.700836
        ],
        "buffer_m": 200.0,
        "area_km2": 0.1242
      }
    }
  ]
}
